[{
    "OBJECT_NAME": "FENGYUN 1C DEB",
    "OBJECT_ID": "1999-025EKK",
    "EPOCH": "2023-11-02T17:29:36.155616",
    "MEAN_MOTION": 14.172408,
    "ECCENTRICITY": 0.0126796,
    "INCLINATION": 98.4239,
    "RA_OF_ASC_NODE": 263.0281,
    "ARG_OF_PERICENTER": 122.475,
    "MEAN_ANOMALY": 356.886,
    "EPHEMERIS_TYPE": 0,
    "CLASSIFICATION_TYPE": "U",
    "NORAD_CAT_ID": 37591,
    "ELEMENT_SET_NO": 999,
    "REV_AT_EPOCH": 74862,
    "BSTAR": 0.0038734,
    "MEAN_MOTION_DOT": 8.43e-5,
    "MEAN_MOTION_DDOT": 0
},{
    "OBJECT_NAME": "FENGYUN 1C DEB",
    "OBJECT_ID": "1999-025EKM",
    "EPOCH": "2023-10-20T08:09:10.253664",
    "MEAN_MOTION": 14.27313566,
    "ECCENTRICITY": 0.0169401,
    "INCLINATION": 99.0921,
    "RA_OF_ASC_NODE": 124.3552,
    "ARG_OF_PERICENTER": 238.7196,
    "MEAN_ANOMALY": 246.7657,
    "EPHEMERIS_TYPE": 0,
    "CLASSIFICATION_TYPE": "U",
    "NORAD_CAT_ID": 37593,
    "ELEMENT_SET_NO": 999,
    "REV_AT_EPOCH": 74894,
    "BSTAR": 0.002427,
    "MEAN_MOTION_DOT": 6.874e-5,
    "MEAN_MOTION_DDOT": 0
},{
    "OBJECT_NAME": "FENGYUN 1C DEB",
    "OBJECT_ID": "1999-025EKN",
    "EPOCH": "2023-11-01T21:38:19.559328",
    "MEAN_MOTION": 14.09808707,
    "ECCENTRICITY": 0.0086343,
    "INCLINATION": 98.8248,
    "RA_OF_ASC_NODE": 342.1923,
    "ARG_OF_PERICENTER": 294.8893,
    "MEAN_ANOMALY": 64.3321,
    "EPHEMERIS_TYPE": 0,
    "CLASSIFICATION_TYPE": "U",
    "NORAD_CAT_ID": 37594,
    "ELEMENT_SET_NO": 999,
    "REV_AT_EPOCH": 66881,
    "BSTAR": 0.00035468,
    "MEAN_MOTION_DOT": 6.01e-6,
    "MEAN_MOTION_DDOT": 0
},{
    "OBJECT_NAME": "FENGYUN 1C DEB",
    "OBJECT_ID": "1999-025EKP",
    "EPOCH": "2023-10-10T14:22:20.082720",
    "MEAN_MOTION": 14.28914937,
    "ECCENTRICITY": 0.0051948,
    "INCLINATION": 99.0595,
    "RA_OF_ASC_NODE": 65.7926,
    "ARG_OF_PERICENTER": 216.9933,
    "MEAN_ANOMALY": 215.8876,
    "EPHEMERIS_TYPE": 0,
    "CLASSIFICATION_TYPE": "U",
    "NORAD_CAT_ID": 37595,
    "ELEMENT_SET_NO": 999,
    "REV_AT_EPOCH": 77451,
    "BSTAR": 0.0088256,
    "MEAN_MOTION_DOT": 0.0002264,
    "MEAN_MOTION_DDOT": 0
},{
    "OBJECT_NAME": "FENGYUN 1C DEB",
    "OBJECT_ID": "1999-025EKS",
    "EPOCH": "2023-10-30T11:14:04.282368",
    "MEAN_MOTION": 14.26201608,
    "ECCENTRICITY": 0.0012958,
    "INCLINATION": 98.853,
    "RA_OF_ASC_NODE": 18.4409,
    "ARG_OF_PERICENTER": 351.686,
    "MEAN_ANOMALY": 75.0402,
    "EPHEMERIS_TYPE": 0,
    "CLASSIFICATION_TYPE": "U",
    "NORAD_CAT_ID": 37598,
    "ELEMENT_SET_NO": 999,
    "REV_AT_EPOCH": 53262,
    "BSTAR": 0.0029813,
    "MEAN_MOTION_DOT": 7.109e-5,
    "MEAN_MOTION_DDOT": 0
},{
    "OBJECT_NAME": "FENGYUN 1C DEB",
    "OBJECT_ID": "1999-025EKU",
    "EPOCH": "2023-10-23T06:18:07.332768",
    "MEAN_MOTION": 13.65836162,
    "ECCENTRICITY": 0.0420266,
    "INCLINATION": 98.9131,
    "RA_OF_ASC_NODE": 131.9321,
    "ARG_OF_PERICENTER": 328.2019,
    "MEAN_ANOMALY": 29.4361,
    "EPHEMERIS_TYPE": 0,
    "CLASSIFICATION_TYPE": "U",
    "NORAD_CAT_ID": 37600,
    "ELEMENT_SET_NO": 999,
    "REV_AT_EPOCH": 77755,
    "BSTAR": 0.0033353,
    "MEAN_MOTION_DOT": 4.984e-5,
    "MEAN_MOTION_DDOT": 0
},{
    "OBJECT_NAME": "FENGYUN 1C DEB",
    "OBJECT_ID": "1999-025EKX",
    "EPOCH": "2023-10-29T15:32:05.983872",
    "MEAN_MOTION": 13.67542212,
    "ECCENTRICITY": 0.0237346,
    "INCLINATION": 98.619,
    "RA_OF_ASC_NODE": 19.8544,
    "ARG_OF_PERICENTER": 261.6441,
    "MEAN_ANOMALY": 95.7736,
    "EPHEMERIS_TYPE": 0,
    "CLASSIFICATION_TYPE": "U",
    "NORAD_CAT_ID": 37682,
    "ELEMENT_SET_NO": 999,
    "REV_AT_EPOCH": 51821,
    "BSTAR": 0.002966,
    "MEAN_MOTION_DOT": 3.002e-5,
    "MEAN_MOTION_DDOT": 0
},{
    "OBJECT_NAME": "FENGYUN 1C DEB",
    "OBJECT_ID": "1999-025EKY",
    "EPOCH": "2023-10-24T23:46:46.301952",
    "MEAN_MOTION": 13.2548954,
    "ECCENTRICITY": 0.0609744,
    "INCLINATION": 97.9996,
    "RA_OF_ASC_NODE": 19.2387,
    "ARG_OF_PERICENTER": 302.0184,
    "MEAN_ANOMALY": 238.6425,
    "EPHEMERIS_TYPE": 0,
    "CLASSIFICATION_TYPE": "U",
    "NORAD_CAT_ID": 37683,
    "ELEMENT_SET_NO": 999,
    "REV_AT_EPOCH": 77132,
    "BSTAR": 0.0017089,
    "MEAN_MOTION_DOT": 2.015e-5,
    "MEAN_MOTION_DDOT": 0
},{
    "OBJECT_NAME": "FENGYUN 1C DEB",
    "OBJECT_ID": "1999-025ELA",
    "EPOCH": "2023-10-28T17:14:56.253696",
    "MEAN_MOTION": 14.07447131,
    "ECCENTRICITY": 0.019042,
    "INCLINATION": 98.0083,
    "RA_OF_ASC_NODE": 266.0364,
    "ARG_OF_PERICENTER": 179.7755,
    "MEAN_ANOMALY": 305.3292,
    "EPHEMERIS_TYPE": 0,
    "CLASSIFICATION_TYPE": "U",
    "NORAD_CAT_ID": 37685,
    "ELEMENT_SET_NO": 999,
    "REV_AT_EPOCH": 70148,
    "BSTAR": 0.0037252,
    "MEAN_MOTION_DOT": 7.368e-5,
    "MEAN_MOTION_DDOT": 0
},{
    "OBJECT_NAME": "FENGYUN 1C DEB",
    "OBJECT_ID": "1999-025ELB",
    "EPOCH": "2023-10-31T12:27:11.556864",
    "MEAN_MOTION": 13.34288565,
    "ECCENTRICITY": 0.0400097,
    "INCLINATION": 99.0955,
    "RA_OF_ASC_NODE": 37.6401,
    "ARG_OF_PERICENTER": 155.9449,
    "MEAN_ANOMALY": 220.9375,
    "EPHEMERIS_TYPE": 0,
    "CLASSIFICATION_TYPE": "U",
    "NORAD_CAT_ID": 37686,
    "ELEMENT_SET_NO": 999,
    "REV_AT_EPOCH": 50311,
    "BSTAR": 0.001076,
    "MEAN_MOTION_DOT": 8.08e-6,
    "MEAN_MOTION_DDOT": 0
},{
    "OBJECT_NAME": "FENGYUN 1C DEB",
    "OBJECT_ID": "1999-025ELC",
    "EPOCH": "2023-10-29T15:06:07.544736",
    "MEAN_MOTION": 13.68024048,
    "ECCENTRICITY": 0.0398674,
    "INCLINATION": 98.2055,
    "RA_OF_ASC_NODE": 70.5512,
    "ARG_OF_PERICENTER": 314.7034,
    "MEAN_ANOMALY": 55.3122,
    "EPHEMERIS_TYPE": 0,
    "CLASSIFICATION_TYPE": "U",
    "NORAD_CAT_ID": 37687,
    "ELEMENT_SET_NO": 999,
    "REV_AT_EPOCH": 72584,
    "BSTAR": 0.0033162,
    "MEAN_MOTION_DOT": 4.872e-5,
    "MEAN_MOTION_DDOT": 0
},{
    "OBJECT_NAME": "FENGYUN 1C DEB",
    "OBJECT_ID": "1999-025ELD",
    "EPOCH": "2023-11-01T06:25:38.927424",
    "MEAN_MOTION": 14.31973643,
    "ECCENTRICITY": 0.004423,
    "INCLINATION": 99.0257,
    "RA_OF_ASC_NODE": 57.455,
    "ARG_OF_PERICENTER": 193.1619,
    "MEAN_ANOMALY": 166.8413,
    "EPHEMERIS_TYPE": 0,
    "CLASSIFICATION_TYPE": "U",
    "NORAD_CAT_ID": 37688,
    "ELEMENT_SET_NO": 999,
    "REV_AT_EPOCH": 77470,
    "BSTAR": 0.006186,
    "MEAN_MOTION_DOT": 0.00016763,
    "MEAN_MOTION_DDOT": 0
},{
    "OBJECT_NAME": "FENGYUN 1C DEB",
    "OBJECT_ID": "1999-025ELF",
    "EPOCH": "2023-10-30T09:07:18.056640",
    "MEAN_MOTION": 14.11618405,
    "ECCENTRICITY": 0.0041121,
    "INCLINATION": 98.8217,
    "RA_OF_ASC_NODE": 346.1799,
    "ARG_OF_PERICENTER": 343.1718,
    "MEAN_ANOMALY": 83.07,
    "EPHEMERIS_TYPE": 0,
    "CLASSIFICATION_TYPE": "U",
    "NORAD_CAT_ID": 37690,
    "ELEMENT_SET_NO": 999,
    "REV_AT_EPOCH": 52819,
    "BSTAR": 0.0014716,
    "MEAN_MOTION_DOT": 2.653e-5,
    "MEAN_MOTION_DDOT": 0
},{
    "OBJECT_NAME": "FENGYUN 1C DEB",
    "OBJECT_ID": "1999-025ELG",
    "EPOCH": "2023-10-27T23:37:49.099584",
    "MEAN_MOTION": 14.20872598,
    "ECCENTRICITY": 0.0410995,
    "INCLINATION": 98.4168,
    "RA_OF_ASC_NODE": 208.474,
    "ARG_OF_PERICENTER": 323.3915,
    "MEAN_ANOMALY": 33.9808,
    "EPHEMERIS_TYPE": 0,
    "CLASSIFICATION_TYPE": "U",
    "NORAD_CAT_ID": 37691,
    "ELEMENT_SET_NO": 999,
    "REV_AT_EPOCH": 74466,
    "BSTAR": 0.0048246,
    "MEAN_MOTION_DOT": 0.00024793,
    "MEAN_MOTION_DDOT": 0
},{
    "OBJECT_NAME": "FENGYUN 1C DEB",
    "OBJECT_ID": "1999-025ELJ",
    "EPOCH": "2023-10-29T19:24:31.662720",
    "MEAN_MOTION": 14.05953555,
    "ECCENTRICITY": 0.0074487,
    "INCLINATION": 98.7097,
    "RA_OF_ASC_NODE": 320.7555,
    "ARG_OF_PERICENTER": 103.0038,
    "MEAN_ANOMALY": 72.4447,
    "EPHEMERIS_TYPE": 0,
    "CLASSIFICATION_TYPE": "U",
    "NORAD_CAT_ID": 37693,
    "ELEMENT_SET_NO": 999,
    "REV_AT_EPOCH": 72419,
    "BSTAR": 0.001107,
    "MEAN_MOTION_DOT": 1.818e-5,
    "MEAN_MOTION_DDOT": 0
},{
    "OBJECT_NAME": "FENGYUN 1C DEB",
    "OBJECT_ID": "1999-025ELK",
    "EPOCH": "2023-10-31T04:06:47.280384",
    "MEAN_MOTION": 14.05092369,
    "ECCENTRICITY": 0.0171887,
    "INCLINATION": 98.2045,
    "RA_OF_ASC_NODE": 66.6578,
    "ARG_OF_PERICENTER": 161.1393,
    "MEAN_ANOMALY": 322.0487,
    "EPHEMERIS_TYPE": 0,
    "CLASSIFICATION_TYPE": "U",
    "NORAD_CAT_ID": 37694,
    "ELEMENT_SET_NO": 999,
    "REV_AT_EPOCH": 70790,
    "BSTAR": 0.0041959,
    "MEAN_MOTION_DOT": 7.694e-5,
    "MEAN_MOTION_DDOT": 0
},{
    "OBJECT_NAME": "FENGYUN 1C DEB",
    "OBJECT_ID": "1999-025ELL",
    "EPOCH": "2023-11-01T16:35:16.257696",
    "MEAN_MOTION": 13.59418362,
    "ECCENTRICITY": 0.0485236,
    "INCLINATION": 98.2168,
    "RA_OF_ASC_NODE": 94.8603,
    "ARG_OF_PERICENTER": 156.6169,
    "MEAN_ANOMALY": 275.9159,
    "EPHEMERIS_TYPE": 0,
    "CLASSIFICATION_TYPE": "U",
    "NORAD_CAT_ID": 37695,
    "ELEMENT_SET_NO": 999,
    "REV_AT_EPOCH": 78739,
    "BSTAR": 0.003184,
    "MEAN_MOTION_DOT": 5.106e-5,
    "MEAN_MOTION_DDOT": 0
},{
    "OBJECT_NAME": "FENGYUN 1C DEB",
    "OBJECT_ID": "1999-025ELP",
    "EPOCH": "2023-11-01T20:07:11.180640",
    "MEAN_MOTION": 13.61622269,
    "ECCENTRICITY": 0.0357962,
    "INCLINATION": 97.973,
    "RA_OF_ASC_NODE": 309.5162,
    "ARG_OF_PERICENTER": 73.8925,
    "MEAN_ANOMALY": 45.0907,
    "EPHEMERIS_TYPE": 0,
    "CLASSIFICATION_TYPE": "U",
    "NORAD_CAT_ID": 37698,
    "ELEMENT_SET_NO": 999,
    "REV_AT_EPOCH": 77238,
    "BSTAR": 0.0022233,
    "MEAN_MOTION_DOT": 2.583e-5,
    "MEAN_MOTION_DDOT": 0
},{
    "OBJECT_NAME": "FENGYUN 1C DEB",
    "OBJECT_ID": "1999-025ELS",
    "EPOCH": "2023-11-02T00:19:05.081664",
    "MEAN_MOTION": 13.8446564,
    "ECCENTRICITY": 0.0292739,
    "INCLINATION": 97.6536,
    "RA_OF_ASC_NODE": 220.6128,
    "ARG_OF_PERICENTER": 231.4756,
    "MEAN_ANOMALY": 191.5438,
    "EPHEMERIS_TYPE": 0,
    "CLASSIFICATION_TYPE": "U",
    "NORAD_CAT_ID": 37701,
    "ELEMENT_SET_NO": 999,
    "REV_AT_EPOCH": 65330,
    "BSTAR": 0.0035827,
    "MEAN_MOTION_DOT": 5.567e-5,
    "MEAN_MOTION_DDOT": 0
}]